STARLINK-31797          
1 59634U 24082D   26068.56394912 -.00000453  00000+0 -69527-5 0  9991
2 59634  43.0006 140.4405 0001214 261.4726  98.5988 15.27570618104831
COSMOS 2576             
1 59773U 24092A   26068.82603826  .00015211  00000+0  56283-3 0  9991
2 59773  97.4253 186.0053 0005946 159.7731 200.3745 15.27760963101271
